ATLAS CENTAUR 2         
1 00694U 63047A   23258.32657943  .00005058  00000+0  64093-3 0  9990
2 00694  30.3535 197.6313 0572679  49.2038 315.6827 14.05814517  3687
THOR AGENA D R/B        
1 00733U 64002A   23258.47070948  .00000462  00000+0  18551-3 0  9998
2 00733  99.0314 210.4918 0034026  18.7887 341.4543 14.32876423108463
SL-3 R/B                
1 00877U 64053B   23258.00917824  .00000284  00000+0  81221-4 0  9992
2 00877  65.0768 106.4738 0081576 289.6670  69.5640 14.59937933134360
SL-8 R/B                
1 02802U 67045B   23258.47474256  .00000458  00000+0  13749-3 0  9996
2 02802  74.0104 238.8056 0064463 104.7491 256.0822 14.44307709958164
OAO 2                   
1 03597U 68110A   23258.46990025  .00000390  00000+0  11262-3 0  9991
2 03597  34.9933 280.9803 0005320 139.3907 220.7181 14.46265357887815
ISIS 1                  
1 03669U 69009A   23258.50203876  .00000185  00000+0  11528-3 0  9992
2 03669  88.4136 254.7585 1711869 117.7254 260.7788 11.29720814246175
SERT 2                  
1 04327U 70009A   23258.56020328  .00000021  00000+0  83867-4 0  9996
2 04327  99.1499 241.0166 0004531 335.0258 133.6652 13.58573767656845
SL-3 R/B                
1 04814U 70113B   23258.43857046  .00040500  00000+0  49185-3 0  9994
2 04814  81.1342 160.9197 0015917 111.8968 248.3978 15.60245805885646
SL-3 R/B                
1 05118U 71028B   23258.50909298  .00010336  00000+0  44023-3 0  9993
2 05118  81.2518  51.1217 0040059 184.0321 176.0595 15.22101426849420
ASTEX 1                 
1 05560U 71089A   23258.43450074  .00000989  00000+0  26193-3 0  9997
2 05560  92.7092 218.7715 0013704 261.2309  98.7344 14.48850170730997
SL-8 R/B                
1 05730U 71119B   23258.58690403  .00014751  00000+0  89442-3 0  9996
2 05730  73.8962  41.1600 0639298 191.8807 166.6636 14.15614685526249
ATLAS CENTAUR R/B       
1 06155U 72065B   23258.28817114  .00002214  00000+0  33734-3 0  9990
2 06155  35.0026 200.0168 0036790 325.2553  34.5745 14.73214883707308
SL-3 R/B                
1 10114U 77057B   23258.53155687  .00006041  00000+0  25766-3 0  9992
2 10114  97.4729  37.5379 0010709 270.3118  89.6892 15.23250878529469
