[{"OBJECT_NAME":"ATLAS CENTAUR 2","OBJECT_ID":"1963-047A","EPOCH":"2023-09-15T07:50:16.462752","MEAN_MOTION":14.05814517,"ECCENTRICITY":0.0572679,"INCLINATION":30.3535,"RA_OF_ASC_NODE":197.6313,"ARG_OF_PERICENTER":49.2038,"MEAN_ANOMALY":315.6827,"EPHEMERIS_TYPE":0,"CLASSIFICATION_TYPE":"U","NORAD_CAT_ID":694,"ELEMENT_SET_NO":999,"REV_AT_EPOCH":368,"BSTAR":0.00064093,"MEAN_MOTION_DOT":5.058e-5,"MEAN_MOTION_DDOT":0},{"OBJECT_NAME":"THOR AGENA D R\/B","OBJECT_ID":"1964-002A","EPOCH":"2023-09-15T11:17:49.299072","MEAN_MOTION":14.32876423,"ECCENTRICITY":0.0034026,"INCLINATION":99.0314,"RA_OF_ASC_NODE":210.4918,"ARG_OF_PERICENTER":18.7887,"MEAN_ANOMALY":341.4543,"EPHEMERIS_TYPE":0,"CLASSIFICATION_TYPE":"U","NORAD_CAT_ID":733,"ELEMENT_SET_NO":999,"REV_AT_EPOCH":10846,"BSTAR":0.00018551,"MEAN_MOTION_DOT":4.62e-6,"MEAN_MOTION_DDOT":0},{"OBJECT_NAME":"SL-3 R\/B","OBJECT_ID":"1964-053B","EPOCH":"2023-09-15T00:13:12.999936","MEAN_MOTION":14.59937933,"ECCENTRICITY":0.0081576,"INCLINATION":65.0768,"RA_OF_ASC_NODE":106.4738,"ARG_OF_PERICENTER":289.667,"MEAN_ANOMALY":69.564,"EPHEMERIS_TYPE":0,"CLASSIFICATION_TYPE":"U","NORAD_CAT_ID":877,"ELEMENT_SET_NO":999,"REV_AT_EPOCH":13436,"BSTAR":8.1221e-5,"MEAN_MOTION_DOT":2.84e-6,"MEAN_MOTION_DDOT":0},{"OBJECT_NAME":"SL-8 R\/B","OBJECT_ID":"1967-045B","EPOCH":"2023-09-15T11:23:37.757184","MEAN_MOTION":14.44307709,"ECCENTRICITY":0.0064463,"INCLINATION":74.0104,"RA_OF_ASC_NODE":238.8056,"ARG_OF_PERICENTER":104.7491,"MEAN_ANOMALY":256.0822,"EPHEMERIS_TYPE":0,"CLASSIFICATION_TYPE":"U","NORAD_CAT_ID":2802,"ELEMENT_SET_NO":999,"REV_AT_EPOCH":95816,"BSTAR":0.00013749,"MEAN_MOTION_DOT":4.58e-6,"MEAN_MOTION_DDOT":0},{"OBJECT_NAME":"OAO 2","OBJECT_ID":"1968-110A","EPOCH":"2023-09-15T11:16:39.381600","MEAN_MOTION":14.46265357,"ECCENTRICITY":0.000532,"INCLINATION":34.9933,"RA_OF_ASC_NODE":280.9803,"ARG_OF_PERICENTER":139.3907,"MEAN_ANOMALY":220.7181,"EPHEMERIS_TYPE":0,"CLASSIFICATION_TYPE":"U","NORAD_CAT_ID":3597,"ELEMENT_SET_NO":999,"REV_AT_EPOCH":88781,"BSTAR":0.00011262,"MEAN_MOTION_DOT":3.9e-6,"MEAN_MOTION_DDOT":0},{"OBJECT_NAME":"ISIS 1","OBJECT_ID":"1969-009A","EPOCH":"2023-09-15T12:02:56.148864","MEAN_MOTION":11.29720814,"ECCENTRICITY":0.1711869,"INCLINATION":88.4136,"RA_OF_ASC_NODE":254.7585,"ARG_OF_PERICENTER":117.7254,"MEAN_ANOMALY":260.7788,"EPHEMERIS_TYPE":0,"CLASSIFICATION_TYPE":"U","NORAD_CAT_ID":3669,"ELEMENT_SET_NO":999,"REV_AT_EPOCH":24617,"BSTAR":0.00011528,"MEAN_MOTION_DOT":1.85e-6,"MEAN_MOTION_DDOT":0},{"OBJECT_NAME":"SERT 2","OBJECT_ID":"1970-009A","EPOCH":"2023-09-15T13:26:41.563392","MEAN_MOTION":13.58573767,"ECCENTRICITY":0.0004531,"INCLINATION":99.1499,"RA_OF_ASC_NODE":241.0166,"ARG_OF_PERICENTER":335.0258,"MEAN_ANOMALY":133.6652,"EPHEMERIS_TYPE":0,"CLASSIFICATION_TYPE":"U","NORAD_CAT_ID":4327,"ELEMENT_SET_NO":999,"REV_AT_EPOCH":65684,"BSTAR":8.3867e-5,"MEAN_MOTION_DOT":2.1e-7,"MEAN_MOTION_DDOT":0},{"OBJECT_NAME":"SL-3 R\/B","OBJECT_ID":"1970-113B","EPOCH":"2023-09-15T10:31:32.487744","MEAN_MOTION":15.60245805,"ECCENTRICITY":0.0015917,"INCLINATION":81.1342,"RA_OF_ASC_NODE":160.9197,"ARG_OF_PERICENTER":111.8968,"MEAN_ANOMALY":248.3978,"EPHEMERIS_TYPE":0,"CLASSIFICATION_TYPE":"U","NORAD_CAT_ID":4814,"ELEMENT_SET_NO":999,"REV_AT_EPOCH":88564,"BSTAR":0.00049185,"MEAN_MOTION_DOT":0.000405,"MEAN_MOTION_DDOT":0},{"OBJECT_NAME":"SL-3 R\/B","OBJECT_ID":"1971-028B","EPOCH":"2023-09-15T12:13:05.633472","MEAN_MOTION":15.22101426,"ECCENTRICITY":0.0040059,"INCLINATION":81.2518,"RA_OF_ASC_NODE":51.1217,"ARG_OF_PERICENTER":184.0321,"MEAN_ANOMALY":176.0595,"EPHEMERIS_TYPE":0,"CLASSIFICATION_TYPE":"U","NORAD_CAT_ID":5118,"ELEMENT_SET_NO":999,"REV_AT_EPOCH":84942,"BSTAR":0.00044023,"MEAN_MOTION_DOT":0.00010336,"MEAN_MOTION_DDOT":0},{"OBJECT_NAME":"ASTEX 1","OBJECT_ID":"1971-089A","EPOCH":"2023-09-15T10:25:40.863936","MEAN_MOTION":14.4885017,"ECCENTRICITY":0.0013704,"INCLINATION":92.7092,"RA_OF_ASC_NODE":218.7715,"ARG_OF_PERICENTER":261.2309,"MEAN_ANOMALY":98.7344,"EPHEMERIS_TYPE":0,"CLASSIFICATION_TYPE":"U","NORAD_CAT_ID":5560,"ELEMENT_SET_NO":999,"REV_AT_EPOCH":73099,"BSTAR":0.00026193,"MEAN_MOTION_DOT":9.89e-6,"MEAN_MOTION_DDOT":0},{"OBJECT_NAME":"SL-8 R\/B","OBJECT_ID":"1971-119B","EPOCH":"2023-09-15T14:05:08.508192","MEAN_MOTION":14.15614685,"ECCENTRICITY":0.0639298,"INCLINATION":73.8962,"RA_OF_ASC_NODE":41.16,"ARG_OF_PERICENTER":191.8807,"MEAN_ANOMALY":166.6636,"EPHEMERIS_TYPE":0,"CLASSIFICATION_TYPE":"U","NORAD_CAT_ID":5730,"ELEMENT_SET_NO":999,"REV_AT_EPOCH":52624,"BSTAR":0.00089442,"MEAN_MOTION_DOT":0.00014751,"MEAN_MOTION_DDOT":0},{"OBJECT_NAME":"ATLAS CENTAUR R\/B","OBJECT_ID":"1972-065B","EPOCH":"2023-09-15T06:54:57.986496","MEAN_MOTION":14.73214883,"ECCENTRICITY":0.003679,"INCLINATION":35.0026,"RA_OF_ASC_NODE":200.0168,"ARG_OF_PERICENTER":325.2553,"MEAN_ANOMALY":34.5745,"EPHEMERIS_TYPE":0,"CLASSIFICATION_TYPE":"U","NORAD_CAT_ID":6155,"ELEMENT_SET_NO":999,"REV_AT_EPOCH":70730,"BSTAR":0.00033734,"MEAN_MOTION_DOT":2.214e-5,"MEAN_MOTION_DDOT":0},{"OBJECT_NAME":"SL-3 R\/B","OBJECT_ID":"1977-057B","EPOCH":"2023-09-15T12:45:26.513568","MEAN_MOTION":15.23250878,"ECCENTRICITY":0.0010709,"INCLINATION":97.4729,"RA_OF_ASC_NODE":37.5379,"ARG_OF_PERICENTER":270.3118,"MEAN_ANOMALY":89.6892,"EPHEMERIS_TYPE":0,"CLASSIFICATION_TYPE":"U","NORAD_CAT_ID":10114,"ELEMENT_SET_NO":999,"REV_AT_EPOCH":52946,"BSTAR":0.00025766,"MEAN_MOTION_DOT":6.041e-5,"MEAN_MOTION_DDOT":0}]
